METEOSAT-7              
1 24932U 97049B   16073.47871845  .00000031  00000-0  00000-0 0  9994
2 24932  10.0710  41.5826 0001935 296.4841  63.5290  1.00270360 67837
NOAA 15                 
1 25338U 98030A   16074.55045209  .00000066  00000-0  46662-4 0  9999
2 25338  98.7834  78.5115 0011750 100.1060 260.1445 14.25709775927503
METEOSAT-8 (MSG-1)      
1 27509U 02040B   16074.15975662 -.00000004  00000-0  00000+0 0  9992
2 27509   4.0339  60.0985 0001554 244.2343 289.1222  1.00277626 49672
KALPANA-1 (METSAT 1)    
1 27525U 02043A   16074.47790338 -.00000107  00000-0  00000+0 0  9997
2 27525   5.5679  58.3956 0014275 227.0756 132.9498  1.00272735 49476
INSAT-3A                
1 27714U 03013A   16074.02311591 -.00000285  00000-0  00000+0 0  9993
2 27714   0.0221 227.0631 0004480 183.8061 222.9876  1.00272998 47377
NOAA 18                 
1 28654U 05018A   16074.55339314  .00000021  00000-0  36934-4 0  9992
2 28654  99.1982  79.0219 0013328 280.9892  78.9779 14.12273347557376
METEOSAT-9 (MSG-2)      
1 28912U 05049B   16075.18294948  .00000033  00000-0  00000+0 0  9999
2 28912   1.3214  66.6882 0002186 268.9022 272.9348  1.00265570 37514
MTSAT-2                 
1 28937U 06004A   16075.48981595 -.00000272  00000-0  00000+0 0  9998
2 28937   0.0314 261.4762 0003921 100.7170 132.6560  1.00273364 36792
FORMOSAT-3 FM6          
1 29047U 06011A   16075.31312218  .00000215  00000-0  10095-3 0  9996
2 29047  71.9800  43.4132 0052354 224.9475 134.7418 14.28484326519238
FORMOSAT-3 FM1          
1 29048U 06011B   16074.86713550  .00000114  00000-0  61446-4 0  9995
2 29048  71.9687 316.9734 0044642 181.1071 255.1906 14.28429062521661
FORMOSAT-3 FM5          
1 29049U 06011C   16075.47983924  .00000174  00000-0  85471-4 0  9998
2 29049  72.0190 118.5856 0036649 221.3620 138.4741 14.28450428517529
FORMOSAT-3 FM3          
1 29050U 06011D   16075.20154764  .00000719  00000-0  16335-3 0  9990
2 29050  72.0154  63.3496 0052660 270.2094  89.3024 14.58239729529654
FORMOSAT-3 FM4          
1 29051U 06011E   16074.31774398  .00000204  00000-0  95439-4 0  9995
2 29051  72.0074  25.8235 0066393  95.7312 265.1399 14.28462224519946
FORMOSAT-3 FM2          
1 29052U 06011F   16075.19083913  .00000140  00000-0  71565-4 0  9992
2 29052  72.0328  93.6548 0040756 186.1455 173.9188 14.28564420518387
GOES 13                 
1 29155U 06018A   16073.73054915 -.00000278  00000-0  00000+0 0  9995
2 29155   0.3914 269.1834 0005550 137.8235 313.0157  1.00276300 35948
METOP-A                 
1 29499U 06044A   16074.86839617  .00000038  00000-0  37557-4 0  9995
2 29499  98.7075 135.1800 0002188  77.2110 342.3352 14.21480500487888
FENGYUN 2D              
1 29640U 06053A   16075.59122190 -.00000388  00000-0  10000-3 0  9997
2 29640   3.6018  66.7507 0001053 107.4485 335.8859  1.00272442 34000
FENGYUN 3A              
1 32958U 08026A   16075.52696182  .00000042  00000-0  39547-4 0  9999
2 32958  98.4645 119.7425 0009525 166.1291 194.0156 14.19608951404267
FENGYUN 2E              
1 33463U 08066A   16074.91421247 -.00000230  00000-0  00000+0 0  9992
2 33463   1.3346  60.3857 0002169 215.0342 313.4538  1.00268200 26523
NOAA 19                 
1 33591U 09005A   16074.49297617  .00000123  00000-0  91611-4 0  9996
2 33591  99.0291  30.5472 0014806 123.2249 237.0344 14.12050476365777
GOES 14                 
1 35491U 09033A   16073.81331570 -.00000118  00000-0  00000+0 0  9992
2 35491   0.0605 114.8731 0003361 120.9043 124.1678  1.00272074 24583
METEOR-M 1              
1 35865U 09049A   16075.50564034 -.00000030  00000-0  52466-5 0  9997
2 35865  98.4672 110.5925 0003313  61.3717 298.7794 14.22057762336917
GOES 15                 
1 36411U 10008A   16073.89643585  .00000058  00000-0  00000+0 0  9991
2 36411   0.0230 195.2250 0001105  68.8941  95.8452  1.00283560 22113
COMS 1                  
1 36744U 10032A   16074.81843713 -.00000373  00000-0  00000+0 0  9996
2 36744   0.0155 109.8836 0001123 242.5775 243.1964  1.00271147 21084
FENGYUN 3B              
1 37214U 10059A   16075.46610973  .00000032  00000-0  38791-4 0  9994
2 37214  98.8302  30.7846 0017442   8.4261 351.7207 14.15803970277634
ELEKTRO-L 1 (GOMS 2)    
1 37344U 11001A   16074.09033501 -.00000125  00000-0  00000+0 0  9991
2 37344   1.5172  79.6908 0004965 169.6128  31.3896  1.00271983 18892
SUOMI NPP               
1 37849U 11061A   16074.80689255  .00000060  00000-0  48894-4 0  9994
2 37849  98.7139  14.4372 0001751  65.3806 347.4756 14.19564326226910
FENGYUN 2F              
1 38049U 12002A   16075.59102479 -.00000385  00000-0  00000+0 0  9991
2 38049   0.7966  73.8942 0001193 125.5170 298.6132  1.00260969 15338
METEOSAT-10 (MSG-3)     
1 38552U 12035B   16073.52282755 -.00000030  00000-0  00000+0 0  9990
2 38552   0.5970  86.9608 0001763 188.2498  84.7475  1.00264259 13648
METOP-B                 
1 38771U 12049A   16075.18765564  .00000042  00000-0  38945-4 0  9992
2 38771  98.6585 135.6006 0001803 109.1614 315.9682 14.21509317181067
FENGYUN 3C              
1 39260U 13052A   16075.50346348  .00000078  00000-0  57494-4 0  9991
2 39260  98.6991 148.4437 0000773 110.0002 250.1257 14.19607889128305
METEOR-M 2              
1 40069U 14037A   16075.44722377  .00000012  00000-0  26106-4 0  9991
2 40069  98.7186 132.0285 0006761  96.4880 263.7065 14.20627445 87421
HIMAWARI 8              
1 40267U 14060A   16074.13098504 -.00000304  00000-0  00000+0 0  9995
2 40267   0.0224  87.5627 0001097 275.4196 356.9949  1.00270732  5298
FENGYUN 2G              
1 40367U 14090A   16075.03056479 -.00000360  00000-0  00000+0 0  9996
2 40367   1.3855 273.4983 0003798 259.9889 115.0475  1.00277857  4483
METEOSAT-11 (MSG-4)     
1 40732U 15034A   16073.25417446 -.00000059  00000-0  00000+0 0  9993
2 40732   2.7028 259.4995 0002274  88.3762 271.1471  1.00273126  2466
ELEKTRO-L 2             
1 41105U 15074A   16075.02801853 -.00000142  00000-0  00000+0 0  9991
2 41105   0.2808 277.5121 0001081 151.6467 191.6922  1.00268443   958
